[
  {
    "region": "South Region",
    "state": "Karnataka",
    "city": "Bengaluru",
    "pincode": "560079",
    "subarea": "Basaveshwaranagar"
  },
  {
    "region": "South Region",
    "state": "Karnataka",
    "city": "Bengaluru",
    "pincode": "560103",
    "subarea": "Belandur"
  },
  {
    "region": "South Region",
    "state": "Karnataka",
    "city": "Bengaluru",
    "pincode": "560046",
    "subarea": "Benson Town"
  },
  {
    "region": "South Region",
    "state": "Karnataka",
    "city": "Bengaluru",
    "pincode": "560068",
    "subarea": "Bommanahalli"
  },
  {
    "region": "South Region",
    "state": "Karnataka",
    "city": "Bengaluru",
    "pincode": "560093",
    "subarea": "C.V. Raman Nagar"
  },
  {
    "region": "South Region",
    "state": "Karnataka",
    "city": "Mysuru",
    "pincode": "570028",
    "subarea": "Alanahalli"
  },
  {
    "region": "South Region",
    "state": "Karnataka",
    "city": "Mysuru",
    "pincode": "570015",
    "subarea": "Bannimantap"
  },
  {
    "region": "South Region",
    "state": "Karnataka",
    "city": "Mysuru",
    "pincode": "570026",
    "subarea": "Bogadi"
  },
  {
    "region": "South Region",
    "state": "Karnataka",
    "city": "Mysuru",
    "pincode": "570004",
    "subarea": "Chamundi Extension"
  },
  {
    "region": "South Region",
    "state": "Karnataka",
    "city": "Mysuru",
    "pincode": "571311",
    "subarea": "Devalapura"
  },
  {
    "region": "North Region",
    "state": "Karnataka",
    "city": "Hubballi",
    "pincode": "580020",
    "subarea": "Hubballi"
  },
  {
    "region": "North Region",
    "state": "Karnataka",
    "city": "Hubballi",
    "pincode": "580023",
    "subarea": "Keshwapur"
  },
  {
    "region": "North Region",
    "state": "Karnataka",
    "city": "Hubballi",
    "pincode": "580025",
    "subarea": "Navanagar"
  },
  {
    "region": "North Region",
    "state": "Karnataka",
    "city": "Hubballi",
    "pincode": "580030",
    "subarea": "Gokul Road"
  },
  {
    "region": "North Region",
    "state": "Karnataka",
    "city": "Hubballi",
    "pincode": "580001",
    "subarea": "Koppikar Road"
  },
  {
    "region": "South Region",
    "state": "Karnataka",
    "city": "Mangaluru",
    "pincode": "575004",
    "subarea": "Bejai"
  },
  {
    "region": "South Region",
    "state": "Karnataka",
    "city": "Mangaluru",
    "pincode": "575005",
    "subarea": "Bikarnakatte Kaikamba"
  },
  {
    "region": "South Region",
    "state": "Karnataka",
    "city": "Mangaluru",
    "pincode": "575001",
    "subarea": "Bolar"
  },
  {
    "region": "South Region",
    "state": "Karnataka",
    "city": "Mangaluru",
    "pincode": "575008",
    "subarea": "Bondel"
  },
  {
    "region": "South Region",
    "state": "Karnataka",
    "city": "Mangaluru",
    "pincode": "575001",
    "subarea": "Falnir"
  },
  {
    "region": "North Region",
    "state": "Karnataka",
    "city": "Belagavi",
    "pincode": "590001",
    "subarea": "Belagavi"
  },
  {
    "region": "North Region",
    "state": "Karnataka",
    "city": "Belagavi",
    "pincode": "590001",
    "subarea": "Angol"
  },
  {
    "region": "North Region",
    "state": "Karnataka",
    "city": "Belagavi",
    "pincode": "590001",
    "subarea": "Camp"
  },
  {
    "region": "North Region",
    "state": "Karnataka",
    "city": "Belagavi",
    "pincode": "591307",
    "subarea": "Gokak"
  },
  {
    "region": "North Region",
    "state": "Karnataka",
    "city": "Belagavi",
    "pincode": "591309",
    "subarea": "Hukeri"
  }
]
